[{"OBJECT_NAME":"STARLINK-4561","OBJECT_ID":"2022-101AN","EPOCH":"2026-03-09T08:51:43.831584","MEAN_MOTION":15.08852387,"ECCENTRICITY":0.00012328,"INCLINATION":53.2179,"RA_OF_ASC_NODE":55.7816,"ARG_OF_PERICENTER":79.103,"MEAN_ANOMALY":281.01,"EPHEMERIS_TYPE":0,"CLASSIFICATION_TYPE":"U","NORAD_CAT_ID":53563,"ELEMENT_SET_NO":999,"REV_AT_EPOCH":19639,"BSTAR":0.0002153656,"MEAN_MOTION_DOT":3.142e-5,"MEAN_MOTION_DDOT":0},{"OBJECT_NAME":"THORAD AGENA D DEB","OBJECT_ID":"1969-082Z","EPOCH":"2026-03-09T07:18:45.871776","MEAN_MOTION":15.11837328,"ECCENTRICITY":0.00204275,"INCLINATION":70.0067,"RA_OF_ASC_NODE":36.7332,"ARG_OF_PERICENTER":221.6463,"MEAN_ANOMALY":138.3149,"EPHEMERIS_TYPE":0,"CLASSIFICATION_TYPE":"U","NORAD_CAT_ID":4157,"ELEMENT_SET_NO":999,"REV_AT_EPOCH":97934,"BSTAR":0.0014373482,"MEAN_MOTION_DOT":0.00024719,"MEAN_MOTION_DDOT":0}]
